[{"OBJECT_NAME":"STARLINK-36283","OBJECT_ID":"2025-304F","EPOCH":"2026-03-09T17:30:06.958080","MEAN_MOTION":14.98314255,"ECCENTRICITY":0.00028288,"INCLINATION":70.002,"RA_OF_ASC_NODE":174.2344,"ARG_OF_PERICENTER":272.5628,"MEAN_ANOMALY":87.5207,"EPHEMERIS_TYPE":0,"CLASSIFICATION_TYPE":"U","NORAD_CAT_ID":67197,"ELEMENT_SET_NO":999,"REV_AT_EPOCH":1389,"BSTAR":3.125774e-6,"MEAN_MOTION_DOT":-5.6e-7,"MEAN_MOTION_DDOT":0},{"OBJECT_NAME":"CZ-6A R\/B","OBJECT_ID":"2024-126D","EPOCH":"2026-03-09T19:23:06.789408","MEAN_MOTION":15.13279149,"ECCENTRICITY":0.00704729,"INCLINATION":97.7886,"RA_OF_ASC_NODE":97.6113,"ARG_OF_PERICENTER":100.2752,"MEAN_ANOMALY":260.6434,"EPHEMERIS_TYPE":0,"CLASSIFICATION_TYPE":"U","NORAD_CAT_ID":60214,"ELEMENT_SET_NO":999,"REV_AT_EPOCH":9240,"BSTAR":0.00030839807,"MEAN_MOTION_DOT":5.76e-5,"MEAN_MOTION_DDOT":0}]
